{
  "norad_id": 49178,
  "name": "STARLINK-3086",
  "history": [
    {
      "epoch": "2026-05-03T19:53:01.068576Z",
      "apogee_km": 574.655844666453,
      "perigee_km": 569.4529313933726,
      "latitude_deg": -3.4403479776261386e-05,
      "longitude_deg": -4.561833638155924,
      "height_km": 574.5711196074643,
      "semi_major_axis_km": 6950.191388029913,
      "eccentricity": 0.0003743,
      "inclination_deg": 69.9993,
      "raan_deg": 155.4192,
      "arg_perigee_deg": 268.0479,
      "mean_anomaly_deg": 92.0251,
      "mean_motion_rev_day": 14.98330486
    },
    {
      "epoch": "2026-05-04T11:54:21.666240Z",
      "apogee_km": 574.6859521897986,
      "perigee_km": 569.4218775908612,
      "latitude_deg": -2.1047448065615257e-05,
      "longitude_deg": 112.76172920446544,
      "height_km": 574.5525647782079,
      "semi_major_axis_km": 6950.19091489033,
      "eccentricity": 0.0003787,
      "inclination_deg": 69.999,
      "raan_deg": 153.7366,
      "arg_perigee_deg": 268.4647,
      "mean_anomaly_deg": 91.6078,
      "mean_motion_rev_day": 14.98330639
    },
    {
      "epoch": "2026-05-05T11:56:22.513056Z",
      "apogee_km": 574.6604024773605,
      "perigee_km": 569.4380325535203,
      "latitude_deg": 3.2878745896549996e-05,
      "longitude_deg": 108.74629301804639,
      "height_km": 574.5457212019957,
      "semi_major_axis_km": 6950.18621751544,
      "eccentricity": 0.0003757,
      "inclination_deg": 69.999,
      "raan_deg": 151.2117,
      "arg_perigee_deg": 268.4989,
      "mean_anomaly_deg": 91.574,
      "mean_motion_rev_day": 14.98332158
    },
    {
      "epoch": "2026-05-06T11:58:23.123136Z",
      "apogee_km": 574.4476737665918,
      "perigee_km": 569.6352312025228,
      "latitude_deg": 6.218668163409458e-05,
      "longitude_deg": 104.73183689904788,
      "height_km": 574.6415060186397,
      "semi_major_axis_km": 6950.178452484557,
      "eccentricity": 0.00034621,
      "inclination_deg": 69.9993,
      "raan_deg": 148.6868,
      "arg_perigee_deg": 265.8964,
      "mean_anomaly_deg": 94.18,
      "mean_motion_rev_day": 14.98334669
    },
    {
      "epoch": "2026-05-07T10:24:14.482944Z",
      "apogee_km": 574.6431713116308,
      "perigee_km": 569.3666235830879,
      "latitude_deg": -3.854996514282829e-06,
      "longitude_deg": 124.9895046858432,
      "height_km": 574.4523786573749,
      "semi_major_axis_km": 6950.141897447359,
      "eccentricity": 0.0003796,
      "inclination_deg": 69.9986,
      "raan_deg": 146.3297,
      "arg_perigee_deg": 269.5795,
      "mean_anomaly_deg": 90.4929,
      "mean_motion_rev_day": 14.9834649
    },
    {
      "epoch": "2026-05-08T18:26:57.465024Z",
      "apogee_km": 574.5970588147638,
      "perigee_km": 569.5248043642905,
      "latitude_deg": 1.1109947900469119e-05,
      "longitude_deg": -0.3714386116867077,
      "height_km": 574.5113613923648,
      "semi_major_axis_km": 6950.197931589527,
      "eccentricity": 0.0003649,
      "inclination_deg": 69.9987,
      "raan_deg": 142.9639,
      "arg_perigee_deg": 269.4927,
      "mean_anomaly_deg": 90.5814,
      "mean_motion_rev_day": 14.9832837
    }
  ]
}